{
  "type": "FeatureCollection",
  "features": [
    {
      "type": "Feature",
      "properties": {
        "norad_id": 67019,
        "name": "STARLINK-35688",
        "group": "last-30-days",
        "lat": -34.878473387209965,
        "lon": -94.51513628021202,
        "alt_km": 369.13847613789676,
        "timestamp": "2025-12-27T20:30:58.025057+00:00",
        "meta_object_name": "STARLINK-35688",
        "meta_object_id": "2025-293S",
        "meta_epoch": "2025-12-27T12:00:02.000160",
        "meta_mean_motion": 15.69315831,
        "meta_eccentricity": 0.0003293,
        "meta_inclination": 69.9984,
        "meta_ra_of_asc_node": 281.1892,
        "meta_arg_of_pericenter": 268.851,
        "meta_mean_anomaly": 210.6403,
        "meta_ephemeris_type": 0,
        "meta_classification_type": "U",
        "meta_norad_cat_id": 67019,
        "meta_element_set_no": 999,
        "meta_rev_at_epoch": 267,
        "meta_bstar": -0.016183,
        "meta_mean_motion_dot": -0.01677946,
        "meta_mean_motion_ddot": 0,
        "tle_line1": "1 67019U 25293S   25361.50002315 -.01677946  00000+0 -16183-1 0  9998",
        "tle_line2": "2 67019  69.9984 281.1892 0003293 268.8510 210.6403 15.69315831  2671"
      },
      "geometry": {
        "type": "Point",
        "coordinates": [
          -94.51513628021202,
          -34.878473387209965
        ]
      }
    },
    {
      "type": "Feature",
      "properties": {
        "norad_id": 67020,
        "name": "STARLINK-36172",
        "group": "last-30-days",
        "lat": -32.72038441156562,
        "lon": -93.34374165101039,
        "alt_km": 369.06729481982984,
        "timestamp": "2025-12-27T20:30:58.025067+00:00",
        "meta_object_name": "STARLINK-36172",
        "meta_object_id": "2025-293T",
        "meta_epoch": "2025-12-27T12:00:02.000160",
        "meta_mean_motion": 15.69279888,
        "meta_eccentricity": 0.000341,
        "meta_inclination": 69.9983,
        "meta_ra_of_asc_node": 281.1864,
        "meta_arg_of_pericenter": 270.4005,
        "meta_mean_anomaly": 211.5004,
        "meta_ephemeris_type": 0,
        "meta_classification_type": "U",
        "meta_norad_cat_id": 67020,
        "meta_element_set_no": 999,
        "meta_rev_at_epoch": 259,
        "meta_bstar": -0.016089,
        "meta_mean_motion_dot": -0.016672,
        "meta_mean_motion_ddot": 0,
        "tle_line1": "1 67020U 25293T   25361.50002315 -.01667200  00000+0 -16089-1 0  9997",
        "tle_line2": "2 67020  69.9983 281.1864 0003410 270.4005 211.5004 15.69279888  2599"
      },
      "geometry": {
        "type": "Point",
        "coordinates": [
          -93.34374165101039,
          -32.72038441156562
        ]
      }
    },
    {
      "type": "Feature",
      "properties": {
        "norad_id": 67021,
        "name": "STARLINK-36184",
        "group": "last-30-days",
        "lat": -30.651443547707313,
        "lon": -92.27698025777602,
        "alt_km": 369.2003023425741,
        "timestamp": "2025-12-27T20:30:58.025077+00:00",
        "meta_object_name": "STARLINK-36184",
        "meta_object_id": "2025-293U",
        "meta_epoch": "2025-12-27T12:00:02.000160",
        "meta_mean_motion": 15.69260992,
        "meta_eccentricity": 0.0003274,
        "meta_inclination": 69.9984,
        "meta_ra_of_asc_node": 281.1846,
        "meta_arg_of_pericenter": 268.5272,
        "meta_mean_anomaly": 215.6637,
        "meta_ephemeris_type": 0,
        "meta_classification_type": "U",
        "meta_norad_cat_id": 67021,
        "meta_element_set_no": 999,
        "meta_rev_at_epoch": 259,
        "meta_bstar": -0.016174,
        "meta_mean_motion_dot": -0.01673719,
        "meta_mean_motion_ddot": 0,
        "tle_line1": "1 67021U 25293U   25361.50002315 -.01673719  00000+0 -16174-1 0  9995",
        "tle_line2": "2 67021  69.9984 281.1846 0003274 268.5272 215.6637 15.69260992  2596"
      },
      "geometry": {
        "type": "Point",
        "coordinates": [
          -92.27698025777602,
          -30.651443547707313
        ]
      }
    },
    {
      "type": "Feature",
      "properties": {
        "norad_id": 67022,
        "name": "STARLINK-36209",
        "group": "last-30-days",
        "lat": -28.402753425063437,
        "lon": -91.17411731017384,
        "alt_km": 369.2279597527813,
        "timestamp": "2025-12-27T20:30:58.025087+00:00",
        "meta_object_name": "STARLINK-36209",
        "meta_object_id": "2025-293V",
        "meta_epoch": "2025-12-27T12:00:02.000160",
        "meta_mean_motion": 15.69227213,
        "meta_eccentricity": 0.0003289,
        "meta_inclination": 69.9981,
        "meta_ra_of_asc_node": 281.1816,
        "meta_arg_of_pericenter": 268.4835,
        "meta_mean_anomaly": 218.1983,
        "meta_ephemeris_type": 0,
        "meta_classification_type": "U",
        "meta_norad_cat_id": 67022,
        "meta_element_set_no": 999,
        "meta_rev_at_epoch": 259,
        "meta_bstar": -0.016205,
        "meta_mean_motion_dot": -0.01674445,
        "meta_mean_motion_ddot": 0,
        "tle_line1": "1 67022U 25293V   25361.50002315 -.01674445  00000+0 -16205-1 0  9998",
        "tle_line2": "2 67022  69.9981 281.1816 0003289 268.4835 218.1983 15.69227213  2592"
      },
      "geometry": {
        "type": "Point",
        "coordinates": [
          -91.17411731017384,
          -28.402753425063437
        ]
      }
    },
    {
      "type": "Feature",
      "properties": {
        "norad_id": 67023,
        "name": "STARLINK-36191",
        "group": "last-30-days",
        "lat": -26.35891371191204,
        "lon": -90.21640820241315,
        "alt_km": 369.2044360330128,
        "timestamp": "2025-12-27T20:30:58.025097+00:00",
        "meta_object_name": "STARLINK-36191",
        "meta_object_id": "2025-293W",
        "meta_epoch": "2025-12-27T12:00:02.000160",
        "meta_mean_motion": 15.69210854,
        "meta_eccentricity": 0.0003404,
        "meta_inclination": 69.9979,
        "meta_ra_of_asc_node": 281.1777,
        "meta_arg_of_pericenter": 267.7486,
        "meta_mean_anomaly": 221.1704,
        "meta_ephemeris_type": 0,
        "meta_classification_type": "U",
        "meta_norad_cat_id": 67023,
        "meta_element_set_no": 999,
        "meta_rev_at_epoch": 248,
        "meta_bstar": -0.016243,
        "meta_mean_motion_dot": -0.01677067,
        "meta_mean_motion_ddot": 0,
        "tle_line1": "1 67023U 25293W   25361.50002315 -.01677067  00000+0 -16243-1 0  9994",
        "tle_line2": "2 67023  69.9979 281.1777 0003404 267.7486 221.1704 15.69210854  2485"
      },
      "geometry": {
        "type": "Point",
        "coordinates": [
          -90.21640820241315,
          -26.35891371191204
        ]
      }
    },
    {
      "type": "Feature",
      "properties": {
        "norad_id": 67024,
        "name": "STARLINK-36192",
        "group": "last-30-days",
        "lat": -24.157277879200066,
        "lon": -89.22330610403071,
        "alt_km": 368.90603383872076,
        "timestamp": "2025-12-27T20:30:58.025111+00:00",
        "meta_object_name": "STARLINK-36192",
        "meta_object_id": "2025-293X",
        "meta_epoch": "2025-12-27T06:00:02.000160",
        "meta_mean_motion": 15.70057204,
        "meta_eccentricity": 0.0003334,
        "meta_inclination": 69.9977,
        "meta_ra_of_asc_node": 281.8775,
        "meta_arg_of_pericenter": 270.6269,
        "meta_mean_anomaly": 248.4641,
        "meta_ephemeris_type": 0,
        "meta_classification_type": "U",
        "meta_norad_cat_id": 67024,
        "meta_element_set_no": 999,
        "meta_rev_at_epoch": 255,
        "meta_bstar": -0.015113147,
        "meta_mean_motion_dot": -0.0162318,
        "meta_mean_motion_ddot": 0,
        "tle_line1": "1 67024U 25293X   25361.25002315 -.01623180  00000+0 -15113-1 0  9999",
        "tle_line2": "2 67024  69.9977 281.8775 0003334 270.6269 248.4641 15.70057204  2553"
      },
      "geometry": {
        "type": "Point",
        "coordinates": [
          -89.22330610403071,
          -24.157277879200066
        ]
      }
    },
    {
      "type": "Feature",
      "properties": {
        "norad_id": 67025,
        "name": "STARLINK-36178",
        "group": "last-30-days",
        "lat": -22.20945174066942,
        "lon": -88.37548432005495,
        "alt_km": 369.1729555127704,
        "timestamp": "2025-12-27T20:30:58.025132+00:00",
        "meta_object_name": "STARLINK-36178",
        "meta_object_id": "2025-293Y",
        "meta_epoch": "2025-12-27T12:00:02.000160",
        "meta_mean_motion": 15.69167111,
        "meta_eccentricity": 0.0003248,
        "meta_inclination": 69.9984,
        "meta_ra_of_asc_node": 281.1725,
        "meta_arg_of_pericenter": 268.6177,
        "meta_mean_anomaly": 224.8381,
        "meta_ephemeris_type": 0,
        "meta_classification_type": "U",
        "meta_norad_cat_id": 67025,
        "meta_element_set_no": 999,
        "meta_rev_at_epoch": 259,
        "meta_bstar": -0.016257,
        "meta_mean_motion_dot": -0.01675466,
        "meta_mean_motion_ddot": 0,
        "tle_line1": "1 67025U 25293Y   25361.50002315 -.01675466  00000+0 -16257-1 0  9992",
        "tle_line2": "2 67025  69.9984 281.1725 0003248 268.6177 224.8381 15.69167111  2599"
      },
      "geometry": {
        "type": "Point",
        "coordinates": [
          -88.37548432005495,
          -22.20945174066942
        ]
      }
    }
  ]
}